NUSAT-48 (HENRIETTA LE*)
1 60498U 24149AG  26068.80506098  .00012988  00000+0  45212-3 0  9999
2 60498  97.3923 150.8264 0002754 263.3026  96.7901 15.29812597 86946
STARLINK-35272          
1 65899U 25224T   26068.13794916  .00034158  00000+0  11594-2 0  9996
2 65899  53.1594  13.6334 0001091  73.1013 287.0107 15.30219147 24781
